P/2015 P4 (PANSTARRS),e,8.7167,104.7528,280.7070,6.058094,0.0660998,0.58352943,65.5955,10/07.0/2018,2000,g 14.0,4.0
# From MPC102952
P/2015 PD229 (Cameron-ISON),e,2.0255,342.7063,352.2667,7.176562,0.0512660,0.32733100,58.9981,10/07.0/2018,2000,g 11.5,2.0
# From MPC 99819
P/2015 Q1 (Scotti),e,22.5260,203.2292,199.8785,3.461161,0.1530634,0.48168969,172.6663,10/07.0/2018,2000,g 14.0,4.0
# From MPC 96867
P/2015 Q2 (Pimentel),e,146.4529,228.3549,244.3812,7.347217,0.0494903,0.75188745,55.6968,10/07.0/2018,2000,g 15.5,4.0
# From MPC 98562
P/2015 R1 (PANSTARRS),e,22.6721,48.5196,300.3934,5.884666,0.0690433,0.63288730,82.7973,10/07.0/2018,2000,g 14.0,4.0
# From MPC 95734
P/2015 R2 (PANSTARRS),e,15.4622,168.6459,149.6656,4.491619,0.1035380,0.45183184,125.8720,10/07.0/2018,2000,g 14.5,4.0
# From MPC102097
C/2015 R3 (PANSTARRS),e,83.6276,36.4045,272.0054,29019,0.0000002,0.99983119,0.0000,02/12.8727/2014,2000,g 10.0,4.0
# From MPC111767
C/2015 T2 (PANSTARRS),e,124.5498,51.0625,30.7160,8129,0.0000013,0.99914693,0.0000,05/19.7511/2017,2000,g  8.0,4.0
# From MPC 96280
P/2015 T3 (PANSTARRS),e,13.0937,120.5019,178.6330,4.326181,0.1095335,0.50818108,359.9227,12/21.0/2014,2000,g 14.0,4.0
# From MPC102953
C/2015 T4 (PANSTARRS),e,87.9605,251.7977,270.0857,82.84020,0.0013072,0.97228751,0.0000,06/18.4395/2016,2000,g 11.0,4.0
# From MPC102097
C/2015 T5 (Sheppard-Tholen),e,11.0468,311.1133,61.7733,27.96122,0.0066661,0.66615682,6.5958,10/07.0/2018,2000,g  7.5,4.0
# From MPC102953
P/2015 TO19 (Lemmon-PANSTARRS),e,6.4992,321.6391,89.2930,4.559369,0.1012388,0.35792490,95.6207,10/07.0/2018,2000,g 14.0,4.0
# From MPC110080
P/2015 TP200 (LINEAR),e,8.7716,6.9763,82.7847,7.291883,0.0500547,0.53549100,35.4771,10/07.0/2018,2000,g 11.0,4.0
# From MPC101097
C/2015 TQ209 (LINEAR),e,11.3868,224.0271,281.4980,897.8778,0.0000366,0.99842767,0.0000,08/27.3876/2016,2000,g 10.5,4.0
# From MPC111768
C/2015 V1 (PANSTARRS),h,12/17.6227/2017,139.2254,197.1914,179.6218,1.000084,4.266622,2000,6.5,4.0
# From MPC111768
C/2015 V2 (Johnson),h,06/12.3291/2017,49.8769,69.8449,164.9178,1.001677,1.637740,2000,5.0,4.0
# From MPC102953
C/2015 V3 (PANSTARRS),e,86.2293,2.3144,0.7266,654.5054,0.0000589,0.99353353,0.0000,11/24.2050/2015,2000,g  9.0,4.0
# From MPC104791
C/2015 V4 (PANSTARRS),e,60.7407,179.9003,307.0777,18.55992,0.0123265,0.70564243,9.4733,10/07.0/2018,2000,g  8.5,4.0
# From MPC111768
C/2015 VL62 (Lemmon-Yeung-PANSTARRS),h,08/29.1260/2017,165.6635,94.6505,128.5797,1.003965,2.722714,2000,8.0,4.0
# From MPC102098
C/2015 WZ (PANSTARRS),e,134.5284,40.1142,66.6090,149.6271,0.0005385,0.99081466,0.0000,04/14.7094/2016,2000,g 15.0,4.0
# From MPC109142
C/2015 W1 (Gibbs),h,05/17.0079/2016,87.2993,114.3254,48.1287,1.000875,2.232997,2000,13.0,4.0
# From MPC101098
P/2015 W2 (Catalina),e,11.6057,294.2287,117.6880,7.311019,0.0498583,0.63321881,54.9763,10/07.0/2018,2000,g 13.0,4.0
# From MPC101098
P/2015 X1 (PANSTARRS),e,12.1548,161.7866,219.0542,3.629607,0.1425327,0.41918143,155.8487,10/07.0/2018,2000,g 16.0,4.0
# From MPC110081
C/2015 XY1 (Lemmon),h,04/29.6545/2018,148.8511,281.6190,196.3374,1.004375,7.927878,2000,5.5,4.0
# From MPC 10028
C/2015 X2 (Catalina),e,72.4641,101.0963,42.0672,15.72488,0.0158060,0.87869425,16.1462,10/07.0/2018,2000,g 16.0,4.0
# From MPC 97498
P/2015 X3 (PANSTARRS),e,24.3818,77.3371,306.7560,5.015804,0.0877391,0.43764269,101.5083,10/07.0/2018,2000,g 15.0,4.0
# From MPC109142
C/2015 X4 (Elenin),e,29.5006,262.6208,176.3677,18.04257,0.0128605,0.81171418,13.7476,10/07.0/2018,2000,g 10.0,4.0
# From MPC111768
C/2015 X5 (PANSTARRS),h,12/30.8859/2017,124.3005,122.3238,27.7457,1.003547,6.801572,2000,7.5,4.0
# From MPC101098
P/2015 X6 (PANSTARRS),e,4.5633,106.9492,329.7461,2.754246,0.2156254,0.17159578,200.1677,10/07.0/2018,2000,g 16.0,4.0
# From MPC109143
C/2015 X7 (ATLAS),h,07/30.1317/2016,57.5624,139.8781,348.5197,1.001165,3.686201,2000,9.0,4.0
# From MPC107048
C/2015 X8 (NEOWISE),e,155.2601,191.1269,20.4592,19.75821,0.0112223,0.93976378,12.1142,10/07.0/2018,2000,g 16.0,4.0
# From MPC109143
C/2015 Y1 (LINEAR),e,71.1981,135.7942,24.7177,272.3114,0.0002193,0.99076242,0.0000,05/14.9839/2016,2000,g 12.0,4.0
# From MPC105543
C/2015 YG1 (NEOWISE),e,57.2443,350.4642,102.6005,17.05993,0.0139874,0.87880140,15.4530,10/07.0/2018,2000,g 13.0,4.0
# From MPC111768
C/2016 A1 (PANSTARRS),h,11/23.3796/2017,121.1963,128.1812,10.3231,1.002302,5.327679,2000,6.0,4.0
# From MPC 10028
P/2016 A2 (Christensen),e,26.3970,291.6678,141.6375,4.743980,0.0953871,0.27315912,114.3273,10/07.0/2018,2000,g 11.5,4.0
# From MPC110494
P/2016 A3 (PANSTARRS),e,8.5605,187.7132,339.2993,7.826945,0.0450107,0.38706079,24.0406,10/07.0/2018,2000,g 10.0,4.0
# From MPC109143
C/2016 A5 (PANSTARRS),e,40.2350,136.1161,321.6573,797.3821,0.0000438,0.99630251,0.0000,06/27.3860/2015,2000,g 13.5,4.0
# From MPC109143
C/2016 A6 (PANSTARRS),e,120.9325,300.3176,141.1180,208.6706,0.0003270,0.98844163,0.0000,11/05.9502/2015,2000,g 15.0,4.0
# From MPC102098
P/2016 A7 (PANSTARRS),e,16.6370,221.4587,352.5848,5.027089,0.0874438,0.56637331,83.4282,10/07.0/2018,2000,g 16.0,4.0
# From MPC106345
C/2016 A8 (LINEAR),e,148.2441,111.3509,130.3539,34.51181,0.0048613,0.94546483,3.7322,10/07.0/2018,2000,g 12.0,4.0
# From MPC107048
C/2016 B1 (NEOWISE),e,50.4756,231.9524,8.6063,424.7064,0.0001126,0.99244658,0.0000,12/04.8276/2016,2000,g  9.5,4.0
# From MPC109143
P/2016 BA14 (PANSTARRS),e,18.9102,180.5398,351.9274,3.023027,0.1875171,0.66570352,175.4645,10/07.0/2018,2000,g 21.0,4.0
# From MPC110494
C/2016 C1 (PANSTARRS),h,02/19.9844/2016,56.1856,181.7822,328.7985,1.004015,8.466187,2000,5.5,4.0
# From MPC101098
C/2016 C2 (NEOWISE),e,38.1437,24.4094,214.4702,65.31941,0.0018670,0.97609131,0.0000,04/19.7270/2016,2000,g 16.0,4.0
# From MPC110494
C/2016 E1 (PANSTARRS),h,06/02.8277/2017,131.8922,233.0375,47.3918,1.003694,8.178068,2000,6.5,4.0
# From MPC 99821
C/2016 E2 (Kowalski),e,135.9394,186.7027,321.8126,136.7887,0.0006161,0.99213231,0.0000,02/06.3880/2016,2000,g 20.0,4.0
# From MPC102098
P/2016 G1 (PANSTARRS),e,10.9677,204.0685,111.2741,2.583198,0.2373928,0.21047428,146.8657,10/07.0/2018,2000,g 14.0,4.0
# From MPEC 2017-D91
P/2016 J1-A (PANSTARRS),e,14.3282,199.8530,46.7571,3.174096,0.1742906,0.22835334,145.3859,10/07.0/2018,2000,g 16.5,4.0
# From MPEC 2017-A77
P/2016 J1-B (PANSTARRS),e,14.3309,199.8578,46.6483,3.173725,0.1743212,0.22820529,145.4860,10/07.0/2018,2000,g 17.0,4.0
# From MPC101099
C/2016 J2 (Denneau),e,130.3461,186.2387,318.5298,577.3417,0.0000710,0.99736663,0.0000,04/11.8324/2016,2000,g 17.0,4.0
# From MPC102099
C/2016 KA (Catalina),e,104.6458,317.5320,63.1446,3187,0.0000055,0.99830445,0.0000,02/01.5698/2016,2000,g  8.5,4.0
# From MPC104792
C/2016 K1 (LINEAR),e,90.8620,325.6746,18.2408,7865,0.0000014,0.99970863,0.0000,07/13.2355/2016,2000,g 13.0,4.0
# From MPC111768
C/2016 M1 (PANSTARRS),e,91.0002,92.2041,209.8271,2303,0.0000089,0.99904015,0.0000,08/10.1752/2018,2000,g  5.0,4.0
# From MPC111768
C/2016 N4 (MASTER),e,72.5590,354.0230,55.9521,3006,0.0000060,0.99893577,0.0000,09/16.5508/2017,2000,g  8.5,4.0
# From MPC111768
C/2016 N6 (PANSTARRS),e,105.8335,298.9761,162.8047,2212,0.0000095,0.99879344,0.0000,07/18.2077/2018,2000,g  7.0,4.0
# From MPC102099
P/2016 P1 (PANSTARRS),e,24.4483,319.5867,269.9705,3.195390,0.1725514,0.28956004,191.4804,10/07.0/2018,2000,g 15.0,4.0
# From MPC102099
C/2016 P4 (PANSTARRS),e,29.8888,320.7738,356.0479,360.9278,0.0001437,0.98368333,0.0000,10/16.9475/2016,2000,g 10.5,4.0
# From MPC111768
C/2016 Q2 (PANSTARRS),e,109.4013,322.3091,84.4393,5894,0.0000022,0.99879785,0.0000,05/10.9120/2021,2000,g  6.0,4.0
# From MPC102955
C/2016 Q4 (Kowalski),e,7.2571,271.2915,99.3819,16.83446,0.0142694,0.57908533,3.6201,10/07.0/2018,2000,g  7.0,4.0
# From MPC111768
C/2016 R2 (PANSTARRS),e,58.2243,80.5695,33.1895,674.2114,0.0000563,0.99614017,0.0000,05/09.5730/2018,2000,g  7.0,4.0
# From MPC102099
C/2016 R3 (Borisov),e,53.0453,78.6366,118.1252,199.8915,0.0003487,0.99775614,0.0000,10/10.8981/2016,2000,g 18.0,4.0
# From MPC109144
P/2016 R4 (Gibbs),e,10.8624,168.3234,173.9967,5.333053,0.0800277,0.47532198,64.7101,10/07.0/2018,2000,g 12.5,4.0
# From MPC105543
P/2016 S1 (PANSTARRS),e,94.6675,227.5241,273.3729,8.308136,0.0411575,0.71104724,23.4126,10/07.0/2018,2000,g 12.0,4.0
# From MPC105238
C/2016 T1 (Matheny),e,129.8416,56.2471,137.3046,122.6288,0.0007258,0.98125311,0.0000,02/01.4440/2017,2000,g 14.5,4.0
# From MPC107685
C/2016 T2 (Matheny),e,81.3107,339.1051,92.2840,99.89680,0.0009871,0.98089776,0.0000,12/29.0007/2016,2000,g 14.5,4.0
# From MPC110082
C/2016 T3 (PANSTARRS),e,22.6767,271.7456,194.6964,139.8448,0.0005960,0.98105048,0.0000,09/06.9893/2017,2000,g 10.5,4.0
# From MPC103847
C/2016 U1 (NEOWISE),h,01/14.0410/2017,46.4453,61.4112,162.7970,1.000344,0.319797,2000,17.0,4.0
# From MPC106345
C/2016 VZ18 (PANSTARRS),e,24.0659,98.9284,36.3413,181.6644,0.0004025,0.99499759,0.0000,03/07.3160/2017,2000,g 19.5,4.0
# From MPC106345
P/2016 WM48 (Lemmon),e,117.5603,59.8691,35.9775,8.201825,0.0419603,0.78626620,24.6479,10/07.0/2018,2000,g 15.0,4.0
# From MPC110082
C/2016 X1 (Lemmon),e,26.4550,256.4253,224.5730,2048,0.0000106,0.99630749,0.0000,04/29.9129/2019,2000,g  6.0,4.0
# From MPC108594
C/2017 A1 (PANSTARRS),e,49.7927,121.0479,2.0796,79.54399,0.0013893,0.97119606,0.0000,05/17.0897/2017,2000,g 13.0,4.0
# From MPC108594
C/2017 A3 (Elenin),e,98.5277,97.9018,304.1074,43.46691,0.0034393,0.91133219,2.1129,10/07.0/2018,2000,g  9.5,4.0
# From MPC111768
C/2017 AB5 (PANSTARRS),e,32.4307,42.6857,78.4047,7930,0.0000014,0.99883783,0.0000,02/17.9500/2018,2000,g  5.5,4.0
# From MPC111768
C/2017 B3 (LINEAR),h,02/02.4525/2019,54.1787,2.1799,284.7391,1.002155,3.921217,2000,6.0,4.0
# From MPC103847
P/2017 B4 (PANSTARRS),e,20.0584,121.4578,11.0197,4.410520,0.1064068,0.36495152,359.9130,01/05.0/2017,2000,g 14.5,4.0
# From MPC104793
C/2017 C1 (NEOWISE),e,65.7230,357.4385,110.1775,20.71077,0.0104571,0.92751280,6.5481,10/07.0/2018,2000,g 18.0,4.0
# From MPC107685
